GALAXY 2 (G-2)          
1 14365U 83098A   26062.42544615  .00000082  00000+0  00000+0 0  9992
2 14365  13.6865 342.7668 0002882  66.5288 123.1881  1.00167029131174
EKRAN 11                
1 14377U 83100A   26064.13358299 -.00000288  00000+0  00000+0 0  9999
2 14377   7.9893 305.2402 0004456 349.6004  10.3219  1.00314106 46339
SL-12 R/B(2)            
1 14394U 83100F   26064.87170932  .00000116  00000+0  00000+0 0  9994
2 14394   7.4641 303.2814 0018299 156.0118  34.5653  1.01049177155970
INTELSAT 507            
1 14421U 83105A   26064.27777734 -.00000051  00000+0  00000+0 0  9996
2 14421  12.0940 331.8337 0003259  47.9319 141.2994  0.99689522136190
SL-12 R/B(2)            
1 14548U 83118F   26064.80476527 -.00000119  00000+0  00000+0 0  9990
2 14548   8.7380 311.6527 0048308 343.0992 235.9067  1.00233380136864
OPS 0441                
1 14675U 84009A   26065.23486648  .00000043  00000+0  00000+0 0  9999
2 14675   6.0583   2.1799 0881232  24.5282  68.3301  1.00318005  6715
TITAN 34D TRANSTAGE R/B 
1 14677U 84009C   26065.07944098 -.00000142  00000+0  00000+0 0  9992
2 14677   6.0733   0.2114 1042026 103.0526 268.7792  0.99451341 24841
RADUGA 14               
1 14725U 84016A   26064.73990207 -.00000072  00000+0  00000+0 0  9991
2 14725   8.7702 311.4715 0000549 123.4104  65.9495  1.00297343117062
COSMOS 1540             
1 14783U 84022A   26065.16799496 -.00000076  00000+0  00000+0 0  9991
2 14783   9.5367 305.3560 0007669 300.5474  50.4341  1.00282467119983
COSMOS 1546             
1 14867U 84031A   26065.16886163 -.00000113  00000+0  00000+0 0  9994
2 14867   8.8746 312.1166 0025186  13.2435 335.6536  1.00257569 46333
STTW-T2                 
1 14899U 84035A   26064.60990147 -.00000330  00000+0  00000+0 0  9990
2 14899   9.6333 318.5469 0005636 196.6787   2.6612  1.00268370 46337
TITAN 34D TRANSTAGE R/B 
1 14931U 84037B   26064.14341680 -.00000347  00000+0  00000+0 0  9998
2 14931   8.9807 311.7400 0032417 325.2069  34.5376  1.01165109 24886
GORIZONT 9              
1 14940U 84041A   26064.74232875 -.00000198  00000+0  00000+0 0  9998
2 14940   8.9436 312.9912 0005795 295.6325 265.7225  1.00317974120908
SL-12 R/B(2)            
1 14948U 84022F   26064.93517031 -.00000272  00000+0  00000+0 0  9999
2 14948   9.6814 305.7735 0021638 147.1128 198.8551  0.99880193160247
SL-12 R/B(2)            
1 14951U 84031F   26064.90100278 -.00000241  00000+0  00000+0 0  9997
2 14951   9.2724 313.2805 0013877 261.1993  77.3451  0.99430684118779
ZHONGXING-5             
1 14985U 84049A   26065.21254182 -.00000290  00000+0  00000+0 0  9996
2 14985  14.3934 349.0952 0009797 252.8861 297.2970  0.99988688130273
RADUGA 15               
1 15057U 84063A   26064.60383479 -.00000330  00000+0  00000+0 0  9992
2 15057   8.9291 312.4570 0001894 249.8571 282.2491  1.00185806140067
COSMOS 1581             
1 15095U 84071A   26064.24149508 -.00000773  00000+0  00000+0 0  9997
2 15095  67.2829  26.4791 6693658   4.0946 359.1534  1.99733030278395
GORIZONT 10             
1 15144U 84078A   26064.34043762  .00000104  00000+0  00000+0 0  9992
2 15144   9.0792 314.0372 0003819 340.4246 205.3861  1.00194703153535
HIMAWARI-3 (GMS-3)      
1 15152U 84080A   26064.94558870  .00000001  00000+0  00000+0 0  9997
2 15152  10.7827 324.3242 0004001 125.9399  68.2034  0.99837324151616
SL-12 R/B(2)            
1 15181U 84078F   26064.67316844 -.00000293  00000+0  00000+0 0  9993
2 15181   9.1627 314.4019 0020812 212.6218 332.9139  1.00349093121979
AMPTE/CCE               
1 15199U 84088A   26065.19702841 -.00000281  00000+0  00000+0 0  9994
2 15199   3.6222 276.3345 7647986  60.8784  14.5507  1.53321751198853
DELTA 1 R/B(2)          
1 15206U 84088F   26064.24669117  .00000010  00000+0  11016-2 0  9997
2 15206  26.4665 137.6427 7790881 254.6295  15.5408  1.58876182236828
USA 4                   
1 15226U 84091A   26064.47747642 -.00000892  00000+0  00000+0 0  9995
2 15226  63.0419  95.5785 6537523 282.8131  15.9815  2.00812260 48637
TITAN 34B R/B           
1 15227U 84091B   26058.86386764  .00000720  00000+0 -27207-2 0  9997
2 15227  63.1761 265.0644 7262253 271.0557  14.4792  2.07950744 52264
TELSTAR 302             
1 15237U 84093D   26063.63586117 -.00000189  00000+0  00000+0 0  9993
2 15237  14.1884 346.1435 0001159 247.8590 322.6034  0.99788014 45390
COSMOS 1596             
1 15267U 84096A   26045.93537163  .00000630  00000+0  00000+0 0  9999
2 15267  65.8670 142.2917 6683746  26.2043 355.9702  2.00682816303558
GALAXY 3 (G-3)          
1 15308U 84101A   26064.47892150  .00000074  00000+0  00000+0 0  9994
2 15308  14.1560 345.8805 0006795  14.6377 178.6417  0.99840849 45446
SL-6 R/B(2)             
1 15355U 84107D   26064.06771070 -.00000921  00000+0  00000+0 0  9996
2 15355  62.9913 127.4260 7254015  43.2556 355.0271  2.03355086307580
ZHONGXING-5R            
1 15385U 84114A   26064.94693631  .00000090  00000+0  00000+0 0  9996
2 15385  14.6863 352.8045 0006531  64.3217 123.7702  0.99757698125940
ATLAS AGENA R/B(2)      
1 15422U 77038C   26063.95670295 -.00000017  00000+0  00000+0 0  9996
2 15422   6.4320 330.2330 1451945 178.6058 181.7979  1.02334779 25172
MOLNIYA 1-63            
1 15429U 84124A   26064.75845755 -.00001591  00000+0  00000+0 0  9999
2 15429  63.1695   4.8817 7282929 257.3580  14.9738  2.00533501301982
SL-6 R/B(2)             
1 15439U 84124H   26064.81488704 -.00000038  00000+0  11408-4 0  9998
2 15439  62.9691  11.0447 7461160 256.8823  18.0817  1.96363533252691
GORIZONT 11             
1 15484U 85007A   26065.00714093 -.00000174  00000+0  00000+0 0  9996
2 15484   9.3433 316.1931 0003235 294.0436 256.3797  1.00252613151591
USA 8                   
1 15543U 85010B   26060.88045242  .00000020  00000+0  00000+0 0  9999
2 15543  12.8541 314.5567 0134636  49.5585 139.3413  0.99814308  6755
IUS R/B(2)              
1 15545U 85010D   26064.40371705  .00000079  00000+0  00000+0 0  9993
2 15545  12.9554 313.3542 0029659 303.1220  56.5876  1.00810844 25876
ARABSAT-1A              
1 15560U 85015A   26064.72158531 -.00000355  00000+0  00000+0 0  9998
2 15560  11.9626 331.9502 0029876 240.7538 319.7487  1.00172465124976
BRASILSAT 1             
1 15561U 85015B   26063.64276406 -.00000048  00000+0  00000+0 0  9990
2 15561  14.1717 345.6666 0006068 332.6369 158.3204  0.99543841 45307
COSMOS 1629             
1 15574U 85016A   26064.46225139  .00000052  00000+0  00000+0 0  9997
2 15574   9.3171 315.1606 0006654 272.3149 285.7823  1.00272563149416
SL-12 R/B(2)            
1 15581U 85016F   26064.67316844 -.00000108  00000+0  00000+0 0  9995
2 15581   9.8284 316.9507 0025144 257.4358 285.8067  0.99402276120901
NAHUEL I1 (ANIK C1)     
1 15642U 85028B   26065.01372762 -.00000041  00000+0  00000+0 0  9992
2 15642  14.7849 352.9207 0011322 148.7334  40.6956  0.99667408 45367
GSTAR 1                 
1 15677U 85035A   26065.27563543 -.00000116  00000+0  00000+0 0  9998
2 15677  14.3607 349.5006 0002522  84.0935  84.5562  1.00272567124171
TELECOM 1B              
1 15678U 85035B   26065.13887483 -.00000276  00000+0  00000+0 0  9993
2 15678  10.3037 321.5733 0004726 344.5553 192.9512  1.00372782135980
SL-6 R/B(2)             
1 15741U 85040D   26064.65549359  .00000274  00000+0  82408-4 0  9997
2 15741  62.3258 304.8953 7460036 256.5888  18.0724  1.96947708292967
ARABSAT-1B              
1 15825U 85048C   26064.87864267  .00000055  00000+0  00000+0 0  9990
2 15825  12.4884 334.8352 0017282  14.2010 182.6034  1.00433990134399
TELSTAR 303             
1 15826U 85048D   26064.52891965  .00000003  00000+0  00000+0 0  9991
2 15826  14.2512 347.0547 0004396 283.7508 270.3235  0.99883123 45468
INTELSAT 511            
1 15873U 85055A   26064.50808572  .00000063  00000+0  00000+0 0  9997
2 15873  13.2856 339.4973 0010838  79.2476 119.1661  1.00105610123470
RADUGA 16               
1 15946U 85070A   26065.27253970  .00000078  00000+0  00000+0 0  9992
2 15946   9.5932 317.4670 0002927 320.3052 173.0443  1.00257901121199
OPTUS A1 (AUSSAT 1)     
1 15993U 85076B   26065.07595455 -.00000283  00000+0  00000+0 0  9994
2 15993  13.3799 339.5874 0004489 352.9880 185.8988  0.99767382118569
ASC 1                   
1 15994U 85076C   26063.12197643 -.00000056  00000+0  00000+0 0  9994
2 15994  13.8690 344.1210 0002203  19.4841  86.1191  1.00310136116926
SL-6 R/B(2)             
1 16106U 85088D   26058.14711357 -.00000800  00000+0  00000+0 0  9990
2 16106  65.0500 145.1480 6790500  31.4549 355.4047  2.04650642301830
IUS R/B(2)              
1 16119U 85092E   26064.45145265  .00000023  00000+0  00000+0 0  9995
2 16119  10.2349 315.4973 0056244 179.0825 180.8899  1.01082060 25002
COSMOS 1700             
1 16199U 85102A   26064.73903541 -.00000037  00000+0  00000+0 0  9991
2 16199   9.8845 319.4987 0004224 259.7853 276.9099  1.00312564150633
SL-12 R/B(2)            
1 16214U 85102D   26064.41572531  .00000093  00000+0  00000+0 0  9996
2 16214   9.6232 318.6596 0018658 154.8995  25.0949  1.00618033123800
RADUGA 17               
1 16250U 85107A   26064.72266832 -.00000365  00000+0  00000+0 0  9992
2 16250   9.7816 319.0033 0012517 239.3716 354.0299  1.00165975150634
MORELOS 2               
1 16274U 85109B   26064.57475457 -.00000227  00000+0  00000+0 0  9995
2 16274  14.7591 357.4863 0002386 177.3899   0.0066  0.99569698 45325
OPTUS A2 (AUSSAT 2)     
1 16275U 85109C   26064.41037794  .00000093  00000+0  00000+0 0  9997
2 16275  13.4431 340.8789 0006342 319.3443 217.9903  0.99945016 45496
SATCOM K2               
1 16276U 85109D   26064.69489374 -.00000255  00000+0  00000+0 0  9994
2 16276  14.7324 353.1780 0012952 288.1508 292.0905  0.99616506124560
MOLNIYA 3-27            
1 16393U 85117A   26057.96110541  .00000039  00000+0 -13036-1 0  9997
2 16393  62.0524 241.3493 7118813 250.8314  24.6650  2.12406012302861
